{
    "links": {
        "self": "http://www.neowsapp.com/rest/v1/neo/3884010?api_key=iIulBulltgU6a56xZRHN4H3l9WmuAYTsLGpBGhQ2"
    },
    "id": "3884010",
    "neo_reference_id": "3884010",
    "name": "(2019 UU8)",
    "designation": "2019 UU8",
    "nasa_jpl_url": "http://ssd.jpl.nasa.gov/sbdb.cgi?sstr=3884010",
    "absolute_magnitude_h": 24.4,
    "estimated_diameter": {
        "kilometers": {
            "estimated_diameter_min": 0.0350392641,
            "estimated_diameter_max": 0.0783501764
        },
        "meters": {
            "estimated_diameter_min": 35.0392641108,
            "estimated_diameter_max": 78.3501764334
        },
        "miles": {
            "estimated_diameter_min": 0.0217723826,
            "estimated_diameter_max": 0.0486845275
        },
        "feet": {
            "estimated_diameter_min": 114.9582192654,
            "estimated_diameter_max": 257.0543928497
        }
    },
    "is_potentially_hazardous_asteroid": false,
    "close_approach_data": [
        {
            "close_approach_date": "2019-10-06",
            "close_approach_date_full": "2019-Oct-06 15:57",
            "epoch_date_close_approach": 1570377420000,
            "relative_velocity": {
                "kilometers_per_second": "6.8470515085",
                "kilometers_per_hour": "24649.3854304997",
                "miles_per_hour": "15316.1695193014"
            },
            "miss_distance": {
                "astronomical": "0.1363235397",
                "lunar": "53.0298569433",
                "kilometers": "20393711.169980439",
                "miles": "12672064.5095864982"
            },
            "orbiting_body": "Earth"
        }
    ],
    "orbital_data": {
        "orbit_id": "3",
        "orbit_determination_date": "2019-10-30 08:03:56",
        "first_observation_date": "2019-10-24",
        "last_observation_date": "2019-10-27",
        "data_arc_in_days": 3,
        "observations_used": 20,
        "orbit_uncertainty": "9",
        "minimum_orbit_intersection": ".10637",
        "jupiter_tisserand_invariant": "3.198",
        "epoch_osculation": "2458782.5",
        "eccentricity": ".565002216591893",
        "semi_major_axis": "2.544419089872374",
        "inclination": "1.765087020119869",
        "ascending_node_longitude": "319.2742705512596",
        "orbital_period": "1482.45457528263",
        "perihelion_distance": "1.106816664155756",
        "perihelion_argument": "44.89670488699894",
        "aphelion_distance": "3.982021515588993",
        "perihelion_time": "2458759.038716881148",
        "mean_anomaly": "5.697349560391405",
        "mean_motion": ".2428404930595368",
        "equinox": "J2000",
        "orbit_class": {
            "orbit_class_type": "AMO",
            "orbit_class_description": "Near-Earth asteroid orbits similar to that of 1221 Amor",
            "orbit_class_range": "1.017 AU < q (perihelion) < 1.3 AU"
        }
    },
    "is_sentry_object": false
}